"id","level_of_education","school_name","address","postal_code","top_pri","lat","lon","x","y"
1,"Primary Schools (Excluding Mixed Level Schools)","ADMIRALTY PRIMARY SCHOOL","11 WOODLANDS CIRCLE","738907",0,"1.4426789499032056","103.80011401818908","24304.8860","47149.7266"
2,"Secondary Schools (Excluding Mixed Level Schools)","ADMIRALTY SECONDARY SCHOOL","31 WOODLANDS CRESCENT","737916",0,"1.4458900228465643","103.80239786333142","24559.0473","47504.7874"
3,"Primary Schools (Excluding Mixed Level Schools)","AHMAD IBRAHIM PRIMARY SCHOOL","10 YISHUN STREET 11","768643",0,"1.4336805402641801","103.83292395609703","27956.1216","46154.7007"
4,"Secondary Schools (Excluding Mixed Level Schools)","AHMAD IBRAHIM SECONDARY SCHOOL","751 YISHUN AVENUE 7","768928",0,"1.4362344792430632","103.82998611741871","27629.1850","46437.1027"
5,"Primary Schools (Excluding Mixed Level Schools)","AI TONG SCHOOL","100 Bright Hill Drive","579646",1,"1.360735697791627","103.83307532153968","27972.9654","38088.8294"
6,"Primary Schools (Excluding Mixed Level Schools)","ALEXANDRA PRIMARY SCHOOL","2A Prince Charles Crescent","159016",0,"1.2912983682264867","103.82394046019334","26956.3330","30410.8076"
7,"Primary Schools (Excluding Mixed Level Schools)","ANCHOR GREEN PRIMARY SCHOOL","31 Anchorvale Drive","544969",0,"1.3906618111836597","103.88725574762026","34002.5395","41397.9754"
8,"Junior Colleges/Centralised Institute (Excluding Mixed Level Schools)","ANDERSON JUNIOR COLLEGE","4500 ANG MO KIO AVENUE 6","569843",0,"1.3780514804388868","103.84573822939082","29382.1891","40003.5241"
9,"Primary Schools (Excluding Mixed Level Schools)","ANDERSON PRIMARY SCHOOL","19 ANG MO KIO AVE 9 ANDERSON PRIMARY SCHOOL","569785",0,"1.3846652986580699","103.84123808503661","28881.3768","40734.8444"
10,"Secondary Schools (Excluding Mixed Level Schools)","ANDERSON SECONDARY SCHOOL","10 ANG MO KIO STREET 53","569206",0,"1.3742415220166473","103.85142961993304","30015.5730","39582.2423"
11,"Primary Schools (Excluding Mixed Level Schools)","ANG MO KIO PRIMARY SCHOOL","20 ANG MO KIO AVENUE 3 ANG MO KIO PRIMARY SCHOOL","569920",0,"1.369321099453498","103.83963052570877","28702.4805","39038.1603"
12,"Secondary Schools (Excluding Mixed Level Schools)","ANG MO KIO SECONDARY SCHOOL","6 ANG MO KIO STREET 22","569362",0,"1.3673583370891909","103.84260004097055","29032.9525","38821.1291"
13,"Secondary Schools (Excluding Mixed Level Schools)","ANGLICAN HIGH SCHOOL","600 UPPER CHANGI ROAD","487012",0,"1.33117973829967","103.94185759236788","40079.3130","34820.9482"
14,"Junior Colleges/Centralised Institute (Excluding Mixed Level Schools)","ANGLO-CHINESE JUNIOR COLLEGE","25 DOVER CLOSE EAST","139745",0,"1.3032872874751977","103.78526264249979","22651.8487","31736.5296"
15,"Secondary Schools (Excluding Mixed Level Schools)","ANGLO-CHINESE SCHOOL (BARKER ROAD)","60 BARKER ROAD","309919",0,"1.3194499419968055","103.83569813157705","28264.8579","33523.6619"
16,"Mixed Level Schools","ANGLO-CHINESE SCHOOL (INDEPENDENT)","121 DOVER ROAD","139650",0,"1.3024441205027348","103.78024948699525","22093.9280","31643.3077"
17,"Primary Schools (Excluding Mixed Level Schools)","ANGLO-CHINESE SCHOOL (JUNIOR)","16 WINSTEDT ROAD","227988",1,"1.3090842071509874","103.8412875195385","28886.9055","32377.4735"
18,"Primary Schools (Excluding Mixed Level Schools)","ANGLO-CHINESE SCHOOL (PRIMARY)","50 BARKER ROAD","309918",1,"1.3187179323675844","103.83534483474314","28225.5395","33442.7200"
19,"Primary Schools (Excluding Mixed Level Schools)","ANGSANA PRIMARY SCHOOL","3 Tampines Street 22","529366",0,"1.3485707667620217","103.95167269405682","41171.5415","36744.0135"
20,"Secondary Schools (Excluding Mixed Level Schools)","ASSUMPTION ENGLISH SCHOOL","622 Upper Bukit Timah Road Assumption English School","678117",0,"1.369162286577332","103.76793721282748","20723.8792","39020.6979"
21,"Secondary Schools (Excluding Mixed Level Schools)","ASSUMPTION PATHWAY SCHOOL","30 Cashew Road","679697",0,"1.3704773526958254","103.76679944018531","20597.2628","39166.1148"
22,"Primary Schools (Excluding Mixed Level Schools)","BALESTIER HILL PRIMARY SCHOOL","565 BALESTIER ROAD","329927",0,"1.3258168518882698","103.84431086430277","29223.3673","34227.6847"
23,"Secondary Schools (Excluding Mixed Level Schools)","BALESTIER HILL SECONDARY SCHOOL","11 NOVENA RISE","307516",0,"1.3243150935541386","103.84354339581024","29137.9565","34061.6276"
24,"Secondary Schools (Excluding Mixed Level Schools)","BARTLEY SECONDARY SCHOOL","10 JALAN BUNGA RAMPAI ROAD","538403",0,"1.3399534891635763","103.88280587834714","33507.4424","35790.8945"
25,"Primary Schools (Excluding Mixed Level Schools)","BEACON PRIMARY SCHOOL","36 Bukit Panjang Ring Road","679944",0,"1.3842360104558884","103.77375402352868","21371.2620","40687.4577"
26,"Secondary Schools (Excluding Mixed Level Schools)","BEATTY SECONDARY SCHOOL","1 TOA PAYOH NORTH","318990",0,"1.341789845112473","103.8520181644957","30081.0985","35993.9017"
27,"Primary Schools (Excluding Mixed Level Schools)","BEDOK GREEN PRIMARY SCHOOL","1 BEDOK SOUTH AVE 2","469317",0,"1.3239956095664696","103.93774468923462","39621.6222","34026.5430"
28,"Secondary Schools (Excluding Mixed Level Schools)","BEDOK GREEN SECONDARY SCHOOL","360 BEDOK NORTH AVE 3","469722",0,"1.3345188060787516","103.93502805000662","39319.2391","35190.1334"
29,"Secondary Schools (Excluding Mixed Level Schools)","BEDOK NORTH SECONDARY SCHOOL","20 JALAN DAMAI","419612",0,"1.3342736118490437","103.9102927282205","36566.4550","35162.9211"
30,"Secondary Schools (Excluding Mixed Level Schools)","BEDOK SOUTH SECONDARY SCHOOL","1 JALAN LANGGAR BEDOK","468585",0,"1.3251879109165834","103.9509425495698","41090.4082","34158.4476"
31,"Secondary Schools (Excluding Mixed Level Schools)","BEDOK VIEW SECONDARY SCHOOL","6 BEDOK SOUTH AVENUE 3","469293",0,"1.3239987297182705","103.94347489197763","40259.3374","34026.9156"
32,"Primary Schools (Excluding Mixed Level Schools)","BENDEMEER PRIMARY SCHOOL","91 BENDEMEER ROAD","339948",0,"1.3222078087980549","103.86535099654442","31564.9266","33828.6355"
33,"Secondary Schools (Excluding Mixed Level Schools)","BENDEMEER SECONDARY SCHOOL","1 ST WILFRED ROAD","327919",0,"1.3246104463085098","103.86096995010931","31077.3567","34094.3010"
34,"Secondary Schools (Excluding Mixed Level Schools)","BISHAN PARK SECONDARY SCHOOL","2 SIN MING WALK","575565",0,"1.365233490463414","103.83272897406427","27934.4211","38586.1724"
35,"Primary Schools (Excluding Mixed Level Schools)","BLANGAH RISE PRIMARY SCHOOL","91 TELOK BLANGAH HEIGHTS","109100",0,"1.276129637587854","103.80863887825473","25253.3821","28733.5390"
36,"Primary Schools (Excluding Mixed Level Schools)","BOON LAY GARDEN PRIMARY SCHOOL","20 BOON LAY DRIVE","649930",0,"1.342846040724714","103.71296867140077","14606.3915","36111.0122"
37,"Secondary Schools (Excluding Mixed Level Schools)","BOON LAY SECONDARY SCHOOL","11 JURONG WEST STREET 65","648354",0,"1.343223056486808","103.70170258667724","13352.5980","36152.7654"
38,"Secondary Schools (Excluding Mixed Level Schools)","BOWEN SECONDARY SCHOOL","2 LORONG NAPIRI","547529",0,"1.3707504063801743","103.87745870647687","32912.2974","39196.2501"
39,"Secondary Schools (Excluding Mixed Level Schools)","BROADRICK SECONDARY SCHOOL","61 DAKOTA CRESCENT","399935",0,"1.3070498458578603","103.88691710747717","33965.0568","32152.5865"
40,"Secondary Schools (Excluding Mixed Level Schools)","BUKIT BATOK SECONDARY SCHOOL","50 BUKIT BATOK WEST AVE 8","658962",0,"1.3484901897507142","103.74087337167683","17711.9102","36734.9790"
41,"Secondary Schools (Excluding Mixed Level Schools)","BUKIT MERAH SECONDARY SCHOOL","10 LENGKOK BAHRU","159050",0,"1.285750870165371","103.81320802345802","25761.9001","29797.4008"
42,"Secondary Schools (Excluding Mixed Level Schools)","BUKIT PANJANG GOVT. HIGH SCHOOL","7 CHOA CHU KANG AVE 4","689809",0,"1.3822249047710409","103.7383535467395","17431.6287","40465.2079"
43,"Primary Schools (Excluding Mixed Level Schools)","BUKIT PANJANG PRIMARY SCHOOL","109 CASHEW ROAD","679676",0,"1.3734715257835912","103.76931715019131","20877.4624","39497.1878"
44,"Primary Schools (Excluding Mixed Level Schools)","BUKIT TIMAH PRIMARY SCHOOL","111 Lorong Kismis Bukit Timah Primary School","598112",0,"1.337517933032326","103.76724297735001","20646.5238","35521.6266"
45,"Primary Schools (Excluding Mixed Level Schools)","BUKIT VIEW PRIMARY SCHOOL","18 BUKIT BATOK STREET 21","659634",0,"1.3459445794124316","103.7535885114171","19126.9561","36453.4481"
46,"Secondary Schools (Excluding Mixed Level Schools)","BUKIT VIEW SECONDARY SCHOOL","16 BUKIT BATOK STREET 21","659633",0,"1.3457224848217408","103.75227743249708","18981.0465","36428.8948"
47,"Primary Schools (Excluding Mixed Level Schools)","CANBERRA PRIMARY SCHOOL","21 ADMIRALTY DRIVE","757714",1,"1.4510633397178683","103.81597053169496","26069.4765","48076.8108"
48,"Secondary Schools (Excluding Mixed Level Schools)","CANBERRA SECONDARY SCHOOL","51 SEMBAWANG DRIVE","757699",0,"1.4532790446668935","103.81447035567346","25902.5329","48321.8137"
49,"Primary Schools (Excluding Mixed Level Schools)","CANOSSA CONVENT PRIMARY SCHOOL","1 Sallim Road","387621",0,"1.3268549994405134","103.88154682228061","33367.3513","34342.5273"
50,"Primary Schools (Excluding Mixed Level Schools)","CANTONMENT PRIMARY SCHOOL","1 Cantonment Close","88256",0,"1.275595700819788","103.8399794499749","28741.3393","28674.4868"
51,"Primary Schools (Excluding Mixed Level Schools)","CASUARINA PRIMARY SCHOOL","30 PASIR RIS ST 41","518935",0,"1.372459972967683","103.95701995287114","41766.4978","39385.5959"
52,"Primary Schools (Excluding Mixed Level Schools)","CATHOLIC HIGH SCHOOL (PRIMARY)","9 BISHAN STREET 22","579767",1,"1.3547224075996394","103.8448743436889","29286.0618","37423.9135"
53,"Mixed Level Schools","CATHOLIC HIGH SCHOOL","9 BISHAN STREET 22","579767",0,"1.3547224075996394","103.8448743436889","29286.0618","37423.9135"
54,"Junior Colleges/Centralised Institute (Excluding Mixed Level Schools)","CATHOLIC JUNIOR COLLEGE","129 WHITLEY ROAD","297822",0,"1.324648104389864","103.83555109625215","28248.4938","34098.4480"
55,"Secondary Schools (Excluding Mixed Level Schools)","CEDAR GIRLS' SECONDARY SCHOOL","1 CEDAR AVENUE","349692",0,"1.3340196409242056","103.8741908703015","32548.6952","35134.7421"
56,"Primary Schools (Excluding Mixed Level Schools)","CEDAR PRIMARY SCHOOL","15 CEDAR AVENUE","349700",0,"1.335640556213736","103.87549094539094","32693.3769","35313.9771"
57,"Secondary Schools (Excluding Mixed Level Schools)","CHANGKAT CHANGI SECONDARY SCHOOL","23 SIMEI ST 3","529894",0,"1.3403859990561722","103.95278453630493","41295.3217","35838.9878"
58,"Primary Schools (Excluding Mixed Level Schools)","CHANGKAT PRIMARY SCHOOL","11 SIMEI ST 3","529896",0,"1.3402309724465447","103.95207978026194","41216.8906","35821.8419"
59,"Primary Schools (Excluding Mixed Level Schools)","CHIJ (KATONG) PRIMARY","17 MARTIA ROAD","424821",0,"1.3065261960536743","103.91092124653763","36636.4983","32094.7537"
60,"Primary Schools (Excluding Mixed Level Schools)","CHIJ (KELLOCK)","1 Bukit Teresa Road","99757",0,"1.2748439334710167","103.82806923293894","27415.8262","28591.3599"
61,"Secondary Schools (Excluding Mixed Level Schools)","CHIJ KATONG CONVENT","3 GEYLANG BAHRU LANE","339626",0,"1.324772128408382","103.87106721644335","32201.0808","34112.1938"
62,"Primary Schools (Excluding Mixed Level Schools)","CHIJ OUR LADY OF GOOD COUNSEL","2C Burghley Drive","558979",0,"1.3579507601990637","103.86424982886001","31442.3277","37780.9072"
63,"Primary Schools (Excluding Mixed Level Schools)","CHIJ OUR LADY OF THE NATIVITY","1257 UPPER SERANGOON ROAD","534793",0,"1.3731733495989644","103.89765905106323","35160.3441","39464.2179"
64,"Primary Schools (Excluding Mixed Level Schools)","CHIJ OUR LADY QUEEN OF PEACE","4 Chestnut Drive","679287",0,"1.366757348008041","103.76769448649159","20696.8594","38754.7726"
65,"Primary Schools (Excluding Mixed Level Schools)","CHIJ PRIMARY (TOA PAYOH)","628 Lorong 1 Toa Payoh","319765",1,"1.3328174861134456","103.8419180430928","28957.0678","35001.7779"
66,"Secondary Schools (Excluding Mixed Level Schools)","CHIJ SECONDARY (TOA PAYOH)","626 LORONG 1 TOA PAYOH","319764",0,"1.332461462883206","103.84271911407343","29046.2188","34962.4110"
67,"Secondary Schools (Excluding Mixed Level Schools)","CHIJ ST. JOSEPH'S CONVENT","62 SENG KANG EAST WAY","548595",0,"1.3917515554937079","103.90246465727154","35695.0897","41518.5180"
68,"Primary Schools (Excluding Mixed Level Schools)","CHIJ ST. NICHOLAS GIRLS' SCHOOL (PRIMARY)","501 ANG MO KIO STREET 13","569405",1,"1.3737290061811105","103.83430854347876","28110.2080","39525.5633"
69,"Mixed Level Schools","CHIJ ST. NICHOLAS GIRLS' SCHOOL","501 ANG MO KIO STREET 13","569405",0,"1.3737290061811105","103.83430854347876","28110.2080","39525.5633"
70,"Secondary Schools (Excluding Mixed Level Schools)","CHIJ ST. THERESA'S CONVENT","160 LOWER DELTA ROAD","99138",0,"1.2760285818358892","103.82234357016581","26778.6056","28722.3542"
71,"Secondary Schools (Excluding Mixed Level Schools)","CHONG BOON SECONDARY SCHOOL","2 ANG MO KIO STREET 44","569250",0,"1.365368595451483","103.85800583578636","30747.4350","38601.1257"
72,"Primary Schools (Excluding Mixed Level Schools)","CHONGFU SCHOOL","170 YISHUN AVENUE 6","768959",1,"1.4384616447603789","103.83907037464492","28640.1237","46683.3720"
73,"Primary Schools (Excluding Mixed Level Schools)","CHONGZHENG PRIMARY SCHOOL","1 TAMPINES STREET 21","529392",0,"1.3505941026020554","103.95122491564115","41121.6978","36967.7417"
74,"Secondary Schools (Excluding Mixed Level Schools)","CHRIST CHURCH SECONDARY SCHOOL","20 WOODLANDS DRIVE 17","737924",0,"1.4264470135300664","103.79338152698904","23555.6330","45354.8923"
75,"Primary Schools (Excluding Mixed Level Schools)","CHUA CHU KANG PRIMARY SCHOOL","20 CHOA CHU KANG AVENUE 2","689905",0,"1.3777426166642384","103.74186021533316","17821.8579","39969.5633"
76,"Secondary Schools (Excluding Mixed Level Schools)","CHUA CHU KANG SECONDARY SCHOOL","3 TECK WHYE CRESCENT","688845",0,"1.38327417107219","103.75202418473414","18953.0031","40581.1741"
77,"Secondary Schools (Excluding Mixed Level Schools)","CHUNG CHENG HIGH SCHOOL (MAIN)","50 GOODMAN ROAD","439012",0,"1.305380464508027","103.89073622808037","34390.0939","31968.0042"
78,"Secondary Schools (Excluding Mixed Level Schools)","CHUNG CHENG HIGH SCHOOL (YISHUN)","11 YISHUN STREET 61","768547",0,"1.4187453630497942","103.837318955291","28445.2214","44503.2444"
79,"Primary Schools (Excluding Mixed Level Schools)","CLEMENTI PRIMARY SCHOOL","8 CLEMENTI AVE 3","129903",0,"1.3158078961150699","103.76305450794865","20180.3232","33121.0532"
80,"Secondary Schools (Excluding Mixed Level Schools)","CLEMENTI TOWN SECONDARY SCHOOL","10 CLEMENTI AVE 3","129904",0,"1.3155384628793716","103.76202026574296","20065.2211","33091.2639"
81,"Secondary Schools (Excluding Mixed Level Schools)","COMMONWEALTH SECONDARY SCHOOL","698 WEST COAST ROAD","608784",0,"1.3191274115803924","103.7457551523776","18255.0832","33488.1695"
82,"Primary Schools (Excluding Mixed Level Schools)","COMPASSVALE PRIMARY SCHOOL","21 COMPASSVALE ST","545091",0,"1.3945291652272558","103.89786443413117","35183.1365","41825.6377"
83,"Secondary Schools (Excluding Mixed Level Schools)","COMPASSVALE SECONDARY SCHOOL","51 COMPASSVALE CRESCENT","545083",0,"1.3962169089839618","103.89987181730395","35406.5265","42012.2662"
84,"Primary Schools (Excluding Mixed Level Schools)","CONCORD PRIMARY SCHOOL","3 CHOA CHU KANG AVE 4","689814",0,"1.380410845471397","103.73614245963581","17185.5542","40264.6281"
85,"Primary Schools (Excluding Mixed Level Schools)","CORAL PRIMARY SCHOOL","20 PASIR RIS ST 51","518902",0,"1.3684128275375678","103.95074166388595","41067.8214","38938.0470"
86,"Secondary Schools (Excluding Mixed Level Schools)","CORAL SECONDARY SCHOOL","31 PASIR RIS STREET 51","518901",0,"1.3671066853258833","103.9492732225476","40904.4082","38793.6122"
87,"Primary Schools (Excluding Mixed Level Schools)","CORPORATION PRIMARY SCHOOL","31 JURONG WEST STREET 24","648347",0,"1.351484823853085","103.70757806465714","14006.5235","37066.2772"
88,"Secondary Schools (Excluding Mixed Level Schools)","CRESCENT GIRLS' SCHOOL","357 TANGLIN ROAD","247961",0,"1.2937896257816195","103.8181978298463","26317.2292","30686.2811"
89,"Secondary Schools (Excluding Mixed Level Schools)","CREST SECONDARY SCHOOL","561 JURONG EAST STREET 24","609561",0,"1.343554356427951","103.74254271903041","17897.6699","36189.1921"
90,"Primary Schools (Excluding Mixed Level Schools)","DA QIAO PRIMARY SCHOOL","8 ANG MO KIO STREET 54","569185",0,"1.3717133169177933","103.8590596026893","30864.6992","39302.6940"
91,"Primary Schools (Excluding Mixed Level Schools)","DAMAI PRIMARY SCHOOL","50 BEDOK RESERVOIR CRESCENT","479225",0,"1.335877121368528","103.91987391920559","37632.7359","35340.2646"
92,"Secondary Schools (Excluding Mixed Level Schools)","DAMAI SECONDARY SCHOOL","4800 BEDOK RESERVOIR ROAD","479229",0,"1.3375448124900715","103.92641673139148","38360.8757","35524.6962"
93,"Primary Schools (Excluding Mixed Level Schools)","DAZHONG PRIMARY SCHOOL","35 BUKIT BATOK STREET 31","659441",0,"1.3590583253329072","103.74816114445802","18523.0002","37903.5212"
94,"Primary Schools (Excluding Mixed Level Schools)","DE LA SALLE SCHOOL","11 Choa Chu Kang St 52","689285",0,"1.3950712498854108","103.74344331142143","17998.1097","41885.6713"
95,"Secondary Schools (Excluding Mixed Level Schools)","DEYI SECONDARY SCHOOL","1 ANG MO KIO STREET 42","569277",0,"1.366621698668087","103.85228076109742","30110.3012","38739.6817"
96,"Secondary Schools (Excluding Mixed Level Schools)","DUNEARN SECONDARY SCHOOL","247 Jalan Boon Lay","619522",0,"1.3416610291191642","103.71006031836147","14282.7161","35979.9955"
97,"Mixed Level Schools","DUNMAN HIGH SCHOOL","10 TANJONG RHU ROAD","436895",0,"1.2991964194929606","103.88296838716091","33525.6178","31284.1857"
98,"Secondary Schools (Excluding Mixed Level Schools)","DUNMAN SECONDARY SCHOOL","21 TAMPINES STREET 45","529093",0,"1.3605468434589523","103.95620694475853","41676.0871","38068.2950"
99,"Primary Schools (Excluding Mixed Level Schools)","EAST COAST PRIMARY SCHOOL","8 CHAI CHEE LANE","469031",0,"1.3291006987561562","103.91988708645727","37634.2276","34590.9617"
100,"Primary Schools (Excluding Mixed Level Schools)","EAST SPRING PRIMARY SCHOOL","31 TAMPINES ST 33","529258",0,"1.352683339392745","103.96167147717719","42284.2733","37198.8183"
101,"Secondary Schools (Excluding Mixed Level Schools)","EAST SPRING SECONDARY SCHOOL","30 TAMPINES STREET 34","529231",0,"1.3562244097141922","103.9606383366007","42169.2756","37590.3667"
102,"Primary Schools (Excluding Mixed Level Schools)","EAST VIEW PRIMARY SCHOOL","4 TAMPINES STREET 91","528907",0,"1.3469596672339084","103.93954629783332","39822.0138","36565.8038"
103,"Secondary Schools (Excluding Mixed Level Schools)","EAST VIEW SECONDARY SCHOOL","3 TAMPINES STREET 42","529177",0,"1.3582610926126792","103.94958691429711","40939.3656","37815.5113"
104,"Primary Schools (Excluding Mixed Level Schools)","EDGEFIELD PRIMARY SCHOOL","41 EDGEFIELD PLAINS","828869",0,"1.4002971678491738","103.90743018853587","36247.6588","42463.4661"
105,"Secondary Schools (Excluding Mixed Level Schools)","EDGEFIELD SECONDARY SCHOOL","36 PUNGGOL FIELD","828814",0,"1.4001786278621626","103.90214088851612","35659.0312","42450.3406"
106,"Primary Schools (Excluding Mixed Level Schools)","ELIAS PARK PRIMARY SCHOOL","11 PASIR RIS STREET 52","518866",0,"1.3745120279800278","103.94512778463623","40443.0315","39612.4370"
107,"Primary Schools (Excluding Mixed Level Schools)","ENDEAVOUR PRIMARY SCHOOL","10 Admiralty Link","757521",0,"1.4540377084056506","103.81743589808816","26232.5507","48405.7004"
108,"Primary Schools (Excluding Mixed Level Schools)","EUNOS PRIMARY SCHOOL","95 JALAN EUNOS Eunos Primary School","419529",0,"1.3243876919014612","103.90437445440493","35907.8441","34069.7661"
109,"Primary Schools (Excluding Mixed Level Schools)","EVERGREEN PRIMARY SCHOOL","31 WOODLANDS CIRCLE","738908",0,"1.4441476931689219","103.79454495799115","23685.1389","47312.1427"
110,"Secondary Schools (Excluding Mixed Level Schools)","EVERGREEN SECONDARY SCHOOL","11 WOODLANDS STREET 83","738489",0,"1.4412201709818222","103.79377116780606","23599.0225","46988.4334"
111,"Primary Schools (Excluding Mixed Level Schools)","FAIRFIELD METHODIST SCHOOL (PRIMARY)","100 DOVER ROAD","139648",1,"1.3007980243293007","103.78569187966008","22699.6137","31461.2787"
112,"Secondary Schools (Excluding Mixed Level Schools)","FAIRFIELD METHODIST SCHOOL (SECONDARY)","102 Dover Road Fairfield Methodist Secondary","139649",0,"1.3018367549221448","103.78434017571858","22549.1834","31576.1391"
113,"Secondary Schools (Excluding Mixed Level Schools)","FAJAR SECONDARY SCHOOL","58 Chestnut Drive","679301",0,"1.3686501703327092","103.77085522376714","21048.6173","38964.0620"
114,"Primary Schools (Excluding Mixed Level Schools)","FARRER PARK PRIMARY SCHOOL","2 FARRER PARK ROAD","217567",0,"1.3125034947522727","103.85090235159113","29956.9436","32755.5662"
115,"Primary Schools (Excluding Mixed Level Schools)","FENGSHAN PRIMARY SCHOOL","307 BEDOK NORTH ROAD","469680",0,"1.3303242883876716","103.93188504264769","38969.4734","34726.3102"
116,"Primary Schools (Excluding Mixed Level Schools)","FERNVALE PRIMARY SCHOOL","1 Fernvale Lane","797701",0,"1.3899787411455067","103.87410064393765","32538.5493","41322.4156"
117,"Primary Schools (Excluding Mixed Level Schools)","FIRST TOA PAYOH PRIMARY SCHOOL","7 LORONG 8 TOA PAYOH","319252",0,"1.340525498380622","103.85566720146225","30487.1981","35854.1001"
118,"Primary Schools (Excluding Mixed Level Schools)","FRONTIER PRIMARY SCHOOL","20 Jurong West Street 61","648200",0,"1.3366424552704212","103.69968247877618","13127.7417","35425.1264"
119,"Primary Schools (Excluding Mixed Level Schools)","FUCHUN PRIMARY SCHOOL","23 WOODLANDS AVENUE 1","739063",0,"1.4306391009100394","103.77817485923309","21863.3661","45818.4674"
120,"Secondary Schools (Excluding Mixed Level Schools)","FUCHUN SECONDARY SCHOOL","21 WOODLANDS AVENUE 1","739062",0,"1.4307038625805428","103.77762541561931","21802.2214","45825.6299"
121,"Primary Schools (Excluding Mixed Level Schools)","FUHUA PRIMARY SCHOOL","65 JURONG EAST STREET 13","609647",0,"1.3364030964045832","103.73666912157698","17243.9705","35398.4663"
122,"Secondary Schools (Excluding Mixed Level Schools)","FUHUA SECONDARY SCHOOL","5 JURONG WEST STREET 41","649410",0,"1.3468792300285268","103.72675934072683","16141.1655","36556.9112"
123,"Primary Schools (Excluding Mixed Level Schools)","GAN ENG SENG PRIMARY SCHOOL","100 REDHILL CLOSE","158901",0,"1.2859547265100413","103.81522787424412","25986.6928","29819.9405"
124,"Secondary Schools (Excluding Mixed Level Schools)","GAN ENG SENG SCHOOL","1 HENDERSON ROAD","159561",0,"1.2890704781799591","103.82373333935256","26933.2813","30164.4591"
125,"Primary Schools (Excluding Mixed Level Schools)","GEYLANG METHODIST SCHOOL (PRIMARY)","4 Geylang East Central","389706",0,"1.3181435014182536","103.88362816855492","33599.0036","33379.2588"
126,"Secondary Schools (Excluding Mixed Level Schools)","GEYLANG METHODIST SCHOOL (SECONDARY)","2 GEYLANG EAST CENTRAL","389705",0,"1.3176583036167555","103.88250331858866","33473.8198","33325.6056"
127,"Primary Schools (Excluding Mixed Level Schools)","GONGSHANG PRIMARY SCHOOL","1 TAMPINES STREET 42","529176",0,"1.3573483151440322","103.94887159227692","40859.7632","37714.5770"
128,"Primary Schools (Excluding Mixed Level Schools)","GREENDALE PRIMARY SCHOOL","50 Edgedale Plains","828848",0,"1.3964019888442574","103.91256563181031","36819.1792","42032.7752"
129,"Secondary Schools (Excluding Mixed Level Schools)","GREENDALE SECONDARY SCHOOL","51 EDGEDALE PLAINS","828866",0,"1.397280133592888","103.9115755071166","36708.9882","42129.8724"
130,"Primary Schools (Excluding Mixed Level Schools)","GREENRIDGE PRIMARY SCHOOL","11 JELAPANG ROAD","677744",0,"1.385873087301755","103.76781429664017","20710.2509","40868.4949"
131,"Secondary Schools (Excluding Mixed Level Schools)","GREENRIDGE SECONDARY SCHOOL","32 BUKIT PANJANG RING ROAD","679938",0,"1.3819235191728656","103.77361663256235","21355.9657","40431.7544"
132,"Secondary Schools (Excluding Mixed Level Schools)","GREENVIEW SECONDARY SCHOOL","15 PASIR RIS STREET 21","518969",0,"1.369305364976233","103.96269307412877","42397.8672","39036.8079"
133,"Primary Schools (Excluding Mixed Level Schools)","GREENWOOD PRIMARY SCHOOL","11 WOODLANDS DR 62","737942",0,"1.4401098313510075","103.80462896210648","24807.3255","46865.6395"
134,"Primary Schools (Excluding Mixed Level Schools)","GUANGYANG PRIMARY SCHOOL","6 Bishan Street 12","579806",0,"1.3460419981059775","103.84928442666924","29776.8600","36464.0809"
135,"Secondary Schools (Excluding Mixed Level Schools)","GUANGYANG SECONDARY SCHOOL","8 BISHAN STREET 12","579807",0,"1.3446725863564717","103.85054989183801","29917.6934","36312.6593"
136,"Secondary Schools (Excluding Mixed Level Schools)","HAI SING CATHOLIC SCHOOL","9 PASIR RIS DRIVE 6","519421",0,"1.3746375364366477","103.95475094712678","41513.9724","39626.3674"
137,"Primary Schools (Excluding Mixed Level Schools)","HAIG GIRLS' SCHOOL","860 NEW UPPER CHANGI ROAD","467353",0,"1.3240224388889585","103.93894268938915","39754.9477","34029.5153"
138,"Secondary Schools (Excluding Mixed Level Schools)","HENDERSON SECONDARY SCHOOL","100 HENDERSON RD","159544",0,"1.2850975739039832","103.81952589058082","26465.0256","29725.1580"
139,"Primary Schools (Excluding Mixed Level Schools)","HENRY PARK PRIMARY SCHOOL","1 HOLLAND GROVE ROAD","278790",1,"1.3167251434023373","103.78420796868254","22534.5022","33222.4214"
140,"Secondary Schools (Excluding Mixed Level Schools)","HILLGROVE SECONDARY SCHOOL","10 BUKIT BATOK STREET 52","659250",0,"1.3527348279949971","103.75305205835983","19067.2795","37204.2818"
141,"Secondary Schools (Excluding Mixed Level Schools)","HOLY INNOCENTS' HIGH SCHOOL","1191 UPPER SERANGOON ROAD","534786",0,"1.3712143985325993","103.89602627309502","34978.6415","39247.6021"
142,"Primary Schools (Excluding Mixed Level Schools)","HOLY INNOCENTS' PRIMARY SCHOOL","5 LORONG LOW KOON Holy Innocents' Primary School","536451",0,"1.366737174654701","103.89368381466883","34717.9667","38752.5265"
143,"Secondary Schools (Excluding Mixed Level Schools)","HONG KAH SECONDARY SCHOOL","931 JURONG WEST STREET 42","649370",0,"1.3521455541609069","103.72682765024078","16148.7931","37139.2351"
144,"Primary Schools (Excluding Mixed Level Schools)","HONG WEN SCHOOL","30 TOWNER ROAD","327829",0,"1.3216886187166828","103.85765142535406","30708.0414","33771.2164"
145,"Primary Schools (Excluding Mixed Level Schools)","HORIZON PRIMARY SCHOOL","61 Edgedale Plains","828819",0,"1.400008148799907","103.91307119366478","36875.4280","42431.5284"
146,"Primary Schools (Excluding Mixed Level Schools)","HOUGANG PRIMARY SCHOOL","1 HOUGANG ST 93","534238",0,"1.3780391942610395","103.88116591631506","33324.8488","40002.2154"
147,"Secondary Schools (Excluding Mixed Level Schools)","HOUGANG SECONDARY SCHOOL","2 HOUGANG STREET 93","534256",0,"1.377639526921381","103.88253362983313","33477.0592","39958.0253"
148,"Secondary Schools (Excluding Mixed Level Schools)","HUA YI SECONDARY SCHOOL","60 JURONG WEST ST 42","649371",0,"1.352342988667651","103.7218319868538","15592.8322","37161.0914"
149,"Primary Schools (Excluding Mixed Level Schools)","HUAMIN PRIMARY SCHOOL","21 YISHUN AVENUE 11","768857",0,"1.4269970795087152","103.8442093385907","29212.0175","45415.6801"
150,"Mixed Level Schools","HWA CHONG INSTITUTION","661 BUKIT TIMAH ROAD","269734",0,"1.3264168181301832","103.80341809489123","24672.4162","34294.0433"
151,"Junior Colleges/Centralised Institute (Excluding Mixed Level Schools)","INNOVA JUNIOR COLLEGE","21 Champions Way","737902",0,"1.4302955957175891","103.78858299294117","23021.6352","45780.4591"
152,"Primary Schools (Excluding Mixed Level Schools)","INNOVA PRIMARY SCHOOL","80 Woodlands Drive 17","737888",0,"1.4289663403655515","103.79060720545031","23246.8971","45633.4724"
153,"Primary Schools (Excluding Mixed Level Schools)","JIEMIN PRIMARY SCHOOL","2 YISHUN STREET 71","768515",0,"1.4276461854265945","103.83048002678491","27684.1484","45487.4523"
154,"Primary Schools (Excluding Mixed Level Schools)","JING SHAN PRIMARY SCHOOL","5 ANG MO KIO ST 52","569228",0,"1.3718920088842566","103.85181073748072","30057.9887","39322.4454"
155,"Primary Schools (Excluding Mixed Level Schools)","JUNYUAN PRIMARY SCHOOL","2 Tampines Street 91","528906",0,"1.3478908780689813","103.93964652588613","39833.1636","36668.7730"
156,"Secondary Schools (Excluding Mixed Level Schools)","JUNYUAN SECONDARY SCHOOL","11 TAMPINES STREET 84","528933",0,"1.3533405743010762","103.93341103976657","39139.1973","37271.3441"
157,"Junior Colleges/Centralised Institute (Excluding Mixed Level Schools)","JURONG JUNIOR COLLEGE","800 CORPORATION ROAD","649809",0,"1.350441355882668","103.71345873802164","14660.9720","36950.8625"
158,"Primary Schools (Excluding Mixed Level Schools)","JURONG PRIMARY SCHOOL","320 JURONG EAST Street 32","609476",0,"1.3485995364993852","103.73315622713413","16853.0772","36747.1040"
159,"Secondary Schools (Excluding Mixed Level Schools)","JURONG SECONDARY SCHOOL","31 YUAN CHING ROAD","618652",0,"1.3301466873893144","103.72409935157582","15845.0552","34706.7220"
160,"Primary Schools (Excluding Mixed Level Schools)","JURONG WEST PRIMARY SCHOOL","30 JURONG WEST ST 61","648368",0,"1.3397120660765671","103.69874326867371","13023.2359","35764.5549"
161,"Secondary Schools (Excluding Mixed Level Schools)","JURONG WEST SECONDARY SCHOOL","61 JURONG WEST STREET 65","648348",0,"1.3352556782528096","103.70209779917691","13396.5338","35271.7688"
162,"Secondary Schools (Excluding Mixed Level Schools)","JURONGVILLE SECONDARY SCHOOL","202 JURONG EAST AVENUE 1","609790",0,"1.3515488919838639","103.72911235296361","16403.0523","37073.2481"
163,"Primary Schools (Excluding Mixed Level Schools)","JUYING PRIMARY SCHOOL","31 JURONG WEST STREET 91","649037",0,"1.3389507845370996","103.687832754059","11809.0041","35680.4454"
164,"Secondary Schools (Excluding Mixed Level Schools)","JUYING SECONDARY SCHOOL","33 JURONG WEST STREET 91","649038",0,"1.3381781681343368","103.68720617285715","11739.2670","35595.0173"
165,"Primary Schools (Excluding Mixed Level Schools)","KEMING PRIMARY SCHOOL","90 BUKIT BATOK EAST AVENUE 6","659762",0,"1.3452443855480605","103.75626413713826","19424.7216","36376.0146"
166,"Secondary Schools (Excluding Mixed Level Schools)","KENT RIDGE SECONDARY SCHOOL","147 WEST COAST ROAD","127368",0,"1.3013522202410754","103.7649271802762","20388.6901","31522.6120"
167,"Primary Schools (Excluding Mixed Level Schools)","KHENG CHENG SCHOOL","15 LORONG 3 TOA PAYOH","319580",0,"1.337406968397226","103.84776079758741","29607.3025","35509.2624"
168,"Primary Schools (Excluding Mixed Level Schools)","KONG HWA SCHOOL","350 GUILLEMARD ROAD","399772",1,"1.3111135526295694","103.88820907923059","34108.8315","32601.9336"
169,"Primary Schools (Excluding Mixed Level Schools)","KRANJI PRIMARY SCHOOL","11 CHOA CHU KANG STREET 54","689189",0,"1.3938591176983242","103.74746503726145","18445.6700","41751.6230"
170,"Secondary Schools (Excluding Mixed Level Schools)","KRANJI SECONDARY SCHOOL","61 CHOA CHU KANG STREET 51","689333",0,"1.390039721510445","103.74109076198239","17736.2801","41329.3198"
171,"Primary Schools (Excluding Mixed Level Schools)","KUO CHUAN PRESBYTERIAN PRIMARY SCHOOL","8 BISHAN STREET 13","579793",0,"1.3491690421825264","103.8548128125393","30392.1054","36809.8582"
172,"Secondary Schools (Excluding Mixed Level Schools)","KUO CHUAN PRESBYTERIAN SECONDARY SCHOOL","10 BISHAN STREET 13","579795",0,"1.3501089817441174","103.85489133542403","30400.8432","36913.7920"
173,"Primary Schools (Excluding Mixed Level Schools)","LAKESIDE PRIMARY SCHOOL","161 Corporation Walk","618310",0,"1.3383750367854448","103.71805020544838","15171.8889","35616.6032"
174,"Primary Schools (Excluding Mixed Level Schools)","LIANHUA PRIMARY SCHOOL","2 BUKIT BATOK STREET 52","659243",0,"1.354154402312751","103.75421004191347","19196.1552","37361.2470"
175,"Primary Schools (Excluding Mixed Level Schools)","LOYANG PRIMARY SCHOOL","3 PASIR RIS DRIVE 6","519419",0,"1.371168660382603","103.95581563008439","41632.4784","39242.8019"
176,"Secondary Schools (Excluding Mixed Level Schools)","LOYANG SECONDARY SCHOOL","12 PASIR RIS STREET 11","519073",0,"1.3666576511236732","103.95806610414081","41882.9553","38744.0092"
177,"Primary Schools (Excluding Mixed Level Schools)","MACPHERSON PRIMARY SCHOOL","2 MATTAR ROAD","387724",0,"1.3245331249858003","103.88161963208134","33375.4593","34085.7864"
178,"Secondary Schools (Excluding Mixed Level Schools)","MACPHERSON SECONDARY SCHOOL","121 CIRCUIT ROAD","379499",0,"1.327288578809347","103.88879302038409","34173.7788","34390.4872"
179,"Primary Schools (Excluding Mixed Level Schools)","MAHA BODHI SCHOOL","10 UBI AVENUE 1","408931",0,"1.3284070561459052","103.90152731579515","35590.9737","34514.1982"
180,"Secondary Schools (Excluding Mixed Level Schools)","MANJUSRI SECONDARY SCHOOL","20 UBI AVENUE 1","408940",0,"1.3275195552198513","103.90181067390176","35622.5113","34416.0637"
181,"Primary Schools (Excluding Mixed Level Schools)","MARIS STELLA HIGH SCHOOL (PRIMARY)","25 MOUNT VERNON ROAD","368051",0,"1.3413879885601778","103.87781373838769","32951.8678","35949.5035"
182,"Mixed Level Schools","MARIS STELLA HIGH SCHOOL","25 MOUNT VERNON ROAD","368051",0,"1.3413879885601778","103.87781373838769","32951.8678","35949.5035"
183,"Primary Schools (Excluding Mixed Level Schools)","MARSILING PRIMARY SCHOOL","31 WOODLANDS CENTRE ROAD","738927",0,"1.4338383736570914","103.77364268011061","21359.0114","46172.2397"
184,"Secondary Schools (Excluding Mixed Level Schools)","MARSILING SECONDARY SCHOOL","12 MARSILING ROAD","739110",0,"1.4366435814030623","103.77600775716425","21622.2166","46482.4189"
185,"Primary Schools (Excluding Mixed Level Schools)","MARYMOUNT CONVENT SCHOOL","430 Lorong 1 Toa Payoh","319759",0,"1.34019979888625","103.84321201857135","29101.0705","35818.0768"
186,"Primary Schools (Excluding Mixed Level Schools)","MAYFLOWER PRIMARY SCHOOL","200 ANG MO KIO AVE 5","569878",0,"1.3763761682998108","103.8432524700665","29105.5559","39818.2753"
187,"Secondary Schools (Excluding Mixed Level Schools)","MAYFLOWER SECONDARY SCHOOL","2 ANG MO KIO STREET 21","569384",0,"1.3683365787973223","103.83543838859313","28235.9464","38929.2962"
188,"Primary Schools (Excluding Mixed Level Schools)","MEE TOH SCHOOL","21 EDGEDALE PLAINS","828867",0,"1.3948528967906562","103.90857223762202","36374.7728","41861.4697"
189,"Junior Colleges/Centralised Institute (Excluding Mixed Level Schools)","MERIDIAN JUNIOR COLLEGE","21 Pasir Ris Street 71","518799",0,"1.3767412624042725","103.93755291945823","39600.0301","39858.8967"
190,"Primary Schools (Excluding Mixed Level Schools)","MERIDIAN PRIMARY SCHOOL","20 PASIR RIS ST 71","518798",0,"1.3755276499452302","103.93488874475422","39303.5458","39724.6886"
191,"Primary Schools (Excluding Mixed Level Schools)","METHODIST GIRLS' SCHOOL (PRIMARY)","11 Blackmore Drive","599986",1,"1.3329293220542187","103.78296231586383","22395.9095","35014.1998"
192,"Mixed Level Schools","METHODIST GIRLS' SCHOOL (SECONDARY)","11 BLACKMORE DRIVE","599986",0,"1.3329293220542187","103.78296231586383","22395.9095","35014.1998"
193,"Junior Colleges/Centralised Institute (Excluding Mixed Level Schools)","MILLENNIA INSTITUTE","60 Bukit Batok West Avenue 8","658965",0,"1.3503186289829388","103.74159322060949","17792.0291","36937.1557"
194,"Primary Schools (Excluding Mixed Level Schools)","MONTFORT JUNIOR SCHOOL","52 HOUGANG AVENUE 8","538786",0,"1.373823774235703","103.8893074497732","34230.9111","39536.1152"
195,"Secondary Schools (Excluding Mixed Level Schools)","MONTFORT SECONDARY SCHOOL","50 HOUGANG AVENUE 8","538785",0,"1.3739500113343284","103.88885951573143","34181.0612","39550.0727"
196,"Secondary Schools (Excluding Mixed Level Schools)","NAN CHIAU HIGH SCHOOL","20 ANCHORVALE LINK","545079",0,"1.3886867747782532","103.8902858824308","34339.7593","41179.5937"
197,"Primary Schools (Excluding Mixed Level Schools)","NAN CHIAU PRIMARY SCHOOL","50 ANCHORVALE LINK","545080",1,"1.392064018515195","103.89092464313963","34410.8360","41553.0341"
198,"Secondary Schools (Excluding Mixed Level Schools)","NAN HUA HIGH SCHOOL","41 CLEMENTI AVENUE 1","129956",0,"1.308140543999347","103.76901510226364","20843.6584","32273.2184"
199,"Primary Schools (Excluding Mixed Level Schools)","NAN HUA PRIMARY SCHOOL","30 JALAN LEMPENG","128806",0,"1.3198359708399563","103.76140362407278","19996.6085","33566.4626"
200,"Secondary Schools (Excluding Mixed Level Schools)","NANYANG GIRLS' HIGH SCHOOL","2 LINDEN DRIVE","288683",0,"1.3306869032383537","103.80238508527817","24557.4586","34766.2089"
201,"Junior Colleges/Centralised Institute (Excluding Mixed Level Schools)","NANYANG JUNIOR COLLEGE","128 SERANGOON AVENUE 3","556111",0,"1.3502824828146265","103.86649838828552","31692.5780","36932.9914"
202,"Primary Schools (Excluding Mixed Level Schools)","NANYANG PRIMARY SCHOOL","52 KING'S ROAD","268097",1,"1.3209534337247864","103.8081222500774","25195.9349","33689.9244"
203,"Mixed Level Schools","NATIONAL JUNIOR COLLEGE","37 HILLCREST ROAD","288913",0,"1.330429261534793","103.80445838013752","24788.1946","34737.7174"
204,"Primary Schools (Excluding Mixed Level Schools)","NAVAL BASE PRIMARY SCHOOL","7 YISHUN AVE 4","769028",0,"1.4162794869936473","103.83879735290913","28609.7464","44230.5806"
205,"Secondary Schools (Excluding Mixed Level Schools)","NAVAL BASE SECONDARY SCHOOL","901 YISHUN RING ROAD","768689",0,"1.4192446266950296","103.83104374991039","27746.8815","44558.4502"
206,"Primary Schools (Excluding Mixed Level Schools)","NEW TOWN PRIMARY SCHOOL","300 Tanglin Halt Road","148812",0,"1.2998107212297296","103.79996447771839","24288.0243","31352.0823"
207,"Secondary Schools (Excluding Mixed Level Schools)","NEW TOWN SECONDARY SCHOOL","1020 DOVER ROAD","139657",0,"1.309985648508882","103.77324863974066","21314.8168","32477.2290"
208,"Primary Schools (Excluding Mixed Level Schools)","NGEE ANN PRIMARY SCHOOL","344 MARINE TERRACE","449149",0,"1.3055394861860314","103.91775509673981","37397.0470","31985.6728"
209,"Secondary Schools (Excluding Mixed Level Schools)","NGEE ANN SECONDARY SCHOOL","1 TAMPINES STREET 32","529283",0,"1.3543975720402346","103.95674435125639","41735.9290","37388.3414"
210,"Primary Schools (Excluding Mixed Level Schools)","NORTH SPRING PRIMARY SCHOOL","1 RIVERVALE STREET","545088",0,"1.3875275700368568","103.9035126231109","35811.7285","41051.4542"
211,"Primary Schools (Excluding Mixed Level Schools)","NORTH VIEW PRIMARY SCHOOL","210 YISHUN AVENUE 6","768960",0,"1.427942735611513","103.84836795519192","29674.8093","45520.2486"
212,"Secondary Schools (Excluding Mixed Level Schools)","NORTH VIEW SECONDARY SCHOOL","530 YISHUN RING ROAD","768680",0,"1.4277018507503805","103.8446622944539","29262.4244","45493.6104"
213,"Primary Schools (Excluding Mixed Level Schools)","NORTH VISTA PRIMARY SCHOOL","20 Compassvale Link","544974",0,"1.3828927272426867","103.89585381914341","34959.4156","40538.9326"
214,"Secondary Schools (Excluding Mixed Level Schools)","NORTH VISTA SECONDARY SCHOOL","11 RIVERVALE LINK","545081",0,"1.38125134776824","103.89892655268716","35301.3770","40357.4463"
215,"Secondary Schools (Excluding Mixed Level Schools)","NORTHBROOKS SECONDARY SCHOOL","585 YISHUN RING ROAD","768692",0,"1.4208803579499831","103.84505992123688","29306.6782","44739.3243"
216,"Primary Schools (Excluding Mixed Level Schools)","NORTHLAND PRIMARY SCHOOL","15 YISHUN AVENUE 4","769026",0,"1.421303377517722","103.84079258380794","28831.7853","44786.0977"
217,"Secondary Schools (Excluding Mixed Level Schools)","NORTHLAND SECONDARY SCHOOL","3 YISHUN STREET 22","768578",0,"1.4357389535243936","103.84010435473512","28755.1907","46382.3108"
218,"Secondary Schools (Excluding Mixed Level Schools)","NORTHLIGHT SCHOOL","151 Towner Road","327830",0,"1.3198275829601311","103.85632628028355","30560.5678","33565.4312"
219,"Primary Schools (Excluding Mixed Level Schools)","NORTHOAKS PRIMARY SCHOOL","61 Sembawang Drive","757622",0,"1.4566662062124627","103.81360967727996","25806.7565","48696.3499"
220,"Mixed Level Schools","NUS HIGH SCHOOL OF MATHEMATICS AND SCIENCE","20 Clementi Avenue 1","129957",0,"1.306620321634016","103.76941215935754","20887.8429","32105.1188"
221,"Primary Schools (Excluding Mixed Level Schools)","OASIS PRIMARY SCHOOL","71 Edgefield Plains","828716",0,"1.4046234650307539","103.91112026726341","36658.2991","42941.8599"
222,"Primary Schools (Excluding Mixed Level Schools)","OPERA ESTATE PRIMARY SCHOOL","48 FIDELIO STREET","458436",0,"1.3199680879476383","103.9237523272213","38064.4266","33581.1386"
223,"Secondary Schools (Excluding Mixed Level Schools)","ORCHID PARK SECONDARY SCHOOL","10 YISHUN STREET 81","768454",0,"1.4148875209258756","103.83833458611535","28558.2474","44076.6639"
224,"Secondary Schools (Excluding Mixed Level Schools)","OUTRAM SECONDARY SCHOOL","3 YORK HILL","168622",0,"1.2863868188539318","103.83707249619056","28417.8166","29867.7122"
225,"Primary Schools (Excluding Mixed Level Schools)","PALM VIEW PRIMARY SCHOOL","150 Compassvale Bow","544822",0,"1.3838400969961673","103.89121477202656","34443.1458","40643.6749"
226,"Primary Schools (Excluding Mixed Level Schools)","PARK VIEW PRIMARY SCHOOL","60 PASIR RIS DRIVE 1","519524",0,"1.3777695942649144","103.93968838406933","39837.6761","39972.6151"
227,"Secondary Schools (Excluding Mixed Level Schools)","PASIR RIS CREST SECONDARY SCHOOL","11 PASIR RIS STREET 41","518934",0,"1.3723432414781662","103.95936224528135","42027.1676","39372.7019"
228,"Primary Schools (Excluding Mixed Level Schools)","PASIR RIS PRIMARY SCHOOL","5 PASIR RIS STREET 21","518968",0,"1.3723079519766614","103.9629185370584","42422.9406","39368.8209"
229,"Secondary Schools (Excluding Mixed Level Schools)","PASIR RIS SECONDARY SCHOOL","390 TAMPINES STREET 21","529400",0,"1.354638898896806","103.9486143382429","40831.1480","37414.9816"
230,"Primary Schools (Excluding Mixed Level Schools)","PAYA LEBAR METHODIST GIRLS' SCHOOL (PRIMARY)","298 LORONG AH SOO","536741",0,"1.3498411977561768","103.88497802819604","33749.1563","36884.2322"
231,"Secondary Schools (Excluding Mixed Level Schools)","PAYA LEBAR METHODIST GIRLS' SCHOOL (SECONDARY)","296 LOR AH SOO","536742",0,"1.3508044617244235","103.88558627141124","33816.8447","36990.7465"
232,"Primary Schools (Excluding Mixed Level Schools)","PEI CHUN PUBLIC SCHOOL","16 TOA PAYOH LORONG 7","319320",1,"1.3373337885638488","103.85563117004074","30483.1914","35501.1771"
233,"Primary Schools (Excluding Mixed Level Schools)","PEI HWA PRESBYTERIAN PRIMARY SCHOOL","7 PEI WAH AVENUE","597610",0,"1.3380544115831825","103.7761079147436","21633.0990","35580.9229"
234,"Secondary Schools (Excluding Mixed Level Schools)","PEI HWA SECONDARY SCHOOL","21 FERNVALE LINK","797702",0,"1.390481484717616","103.87856639222113","33035.5279","41378.0155"
235,"Primary Schools (Excluding Mixed Level Schools)","PEI TONG PRIMARY SCHOOL","15 CLEMENTI AVENUE 5","129857",0,"1.316736409434143","103.76743390483703","20667.7108","33223.7102"
236,"Secondary Schools (Excluding Mixed Level Schools)","PEICAI SECONDARY SCHOOL","10 SERANGOON AVENUE 4","556094",0,"1.3592725817786266","103.87049194482705","32137.0009","37927.0773"
237,"Secondary Schools (Excluding Mixed Level Schools)","PEIRCE SECONDARY SCHOOL","10 SIN MING WALK","575566",0,"1.3661310090801222","103.82991002185648","27620.7054","38685.4157"
238,"Primary Schools (Excluding Mixed Level Schools)","PEIYING PRIMARY SCHOOL","651 YISHUN RING ROAD","768687",0,"1.4174075253996885","103.83029913464674","27664.0163","44355.3129"
239,"Secondary Schools (Excluding Mixed Level Schools)","PING YI SECONDARY SCHOOL","61 CHAI CHEE STREET","468980",0,"1.3271396188154982","103.92083542095872","37739.7753","34374.1190"
240,"Junior Colleges/Centralised Institute (Excluding Mixed Level Schools)","PIONEER JUNIOR COLLEGE","21 Teck Whye Walk","688258",0,"1.384608824017748","103.75393246549014","19165.3756","40728.7462"
241,"Primary Schools (Excluding Mixed Level Schools)","PIONEER PRIMARY SCHOOL","23 JURONG WEST STREET 81","649076",0,"1.3487202610927886","103.69486754051498","12591.9642","36760.6620"
242,"Secondary Schools (Excluding Mixed Level Schools)","PIONEER SECONDARY SCHOOL","21 JURONG WEST STREET 81","649075",0,"1.347641103705322","103.69452642382537","12553.9948","36641.3361"
243,"Primary Schools (Excluding Mixed Level Schools)","POI CHING SCHOOL","21 TAMPINES STREET 71","529067",0,"1.3580863337605646","103.93535218807834","39355.2033","37796.1158"
244,"Secondary Schools (Excluding Mixed Level Schools)","PRESBYTERIAN HIGH SCHOOL","5209 ANG MO KIO AVENUE 6","569845",0,"1.3817537076467308","103.84238263507056","29008.7518","40412.8959"
245,"Primary Schools (Excluding Mixed Level Schools)","PRINCESS ELIZABETH PRIMARY SCHOOL","30 BUKIT BATOK WEST AVENUE 3","659163",0,"1.349193850676486","103.74099929199934","17725.9267","36812.7858"
246,"Primary Schools (Excluding Mixed Level Schools)","PUNGGOL COVE PRIMARY SCHOOL","52 Sumang Walk","828674",0,"1.4115628984585922","103.89897003172138","35306.1221","43709.1464"
247,"Primary Schools (Excluding Mixed Level Schools)","PUNGGOL GREEN PRIMARY SCHOOL","98 Punggol Walk","828772",0,"1.4018042060774798","103.89877253110913","35284.1733","42630.0782"
248,"Primary Schools (Excluding Mixed Level Schools)","PUNGGOL PRIMARY SCHOOL","61 HOUGANG AVENUE 8","538787",0,"1.377793846136887","103.89450660042816","34809.5017","39975.1200"
249,"Secondary Schools (Excluding Mixed Level Schools)","PUNGGOL SECONDARY SCHOOL","51 EDGEFIELD PLAINS","828870",0,"1.4021256283984662","103.90911893182194","36435.5867","42665.6542"
250,"Primary Schools (Excluding Mixed Level Schools)","PUNGGOL VIEW PRIMARY SCHOOL","9 Punggol Place","828845",0,"1.4053326473202516","103.9053862080469","36020.1741","43020.2573"
251,"Primary Schools (Excluding Mixed Level Schools)","QIFA PRIMARY SCHOOL","50 WEST COAST AVENUE","128104",0,"1.313250811994011","103.75674287579669","19477.8903","32838.3244"
252,"Primary Schools (Excluding Mixed Level Schools)","QIHUA PRIMARY SCHOOL","5 WOODLANDS STREET 81","738525",0,"1.4420352998196608","103.78833942344545","22994.5551","47078.5775"
253,"Primary Schools (Excluding Mixed Level Schools)","QUEENSTOWN PRIMARY SCHOOL","310 MARGARET DR","149303",0,"1.2959877796327872","103.80790156902634","25171.3473","30929.3508"
254,"Secondary Schools (Excluding Mixed Level Schools)","QUEENSTOWN SECONDARY SCHOOL","1 STRATHMORE ROAD","148800",0,"1.2935326271281393","103.81317513677527","25758.2469","30657.8674"
255,"Secondary Schools (Excluding Mixed Level Schools)","QUEENSWAY SECONDARY SCHOOL","2A MARGARET DRIVE","149295",0,"1.3004745006353269","103.8017232810565","24483.7643","31425.4771"
256,"Primary Schools (Excluding Mixed Level Schools)","RADIN MAS PRIMARY SCHOOL","1 BUKIT PURMEI AVENUE","99840",0,"1.274960945531227","103.82417963464864","26982.9446","28604.2997"
257,"Primary Schools (Excluding Mixed Level Schools)","RAFFLES GIRLS' PRIMARY SCHOOL","21 Hillcrest Road","289072",1,"1.3300732523545404","103.80622100184051","24984.3558","34698.3495"
258,"Secondary Schools (Excluding Mixed Level Schools)","RAFFLES GIRLS' SCHOOL (SECONDARY)","20 ANDERSON ROAD","259978",0,"1.3116943618258858","103.82895925263351","27514.8854","32666.0900"
259,"Mixed Level Schools","RAFFLES INSTITUTION","1 RAFFLES INSTITUTION LANE","575954",0,"1.3457604202067892","103.84598254129482","29409.3967","36432.9433"
260,"Primary Schools (Excluding Mixed Level Schools)","RED SWASTIKA SCHOOL","350 BEDOK NORTH AVENUE 3","469719",0,"1.3334931632889775","103.93437455131654","39246.5161","35076.7199"
261,"Secondary Schools (Excluding Mixed Level Schools)","REGENT SECONDARY SCHOOL","50 CHOA CHU KANG NORTH 5","689621",0,"1.3930934152901222","103.75068522033438","18804.0312","41666.9426"
262,"Mixed Level Schools","RIVER VALLEY HIGH SCHOOL","6 BOON LAY AVENUE","649961",0,"1.3445951760190773","103.70819035558532","14074.6256","36304.4498"
263,"Primary Schools (Excluding Mixed Level Schools)","RIVER VALLEY PRIMARY SCHOOL","2 RIVER VALLEY GREEN","237993",0,"1.2941828089348846","103.8360185984492","28300.5257","30729.7524"
264,"Primary Schools (Excluding Mixed Level Schools)","RIVERSIDE PRIMARY SCHOOL","110 Woodlands Crescent","737803",0,"1.4471042834947072","103.8019208772879","24505.9681","47639.0550"
265,"Secondary Schools (Excluding Mixed Level Schools)","RIVERSIDE SECONDARY SCHOOL","3 WOODLANDS STREET 81","738524",0,"1.4410772826774687","103.78831313851042","22991.6279","46972.6448"
266,"Primary Schools (Excluding Mixed Level Schools)","RIVERVALE PRIMARY SCHOOL","80 RIVERVALE DRIVE","545092",0,"1.3935731381183782","103.90471795100822","35945.8458","41719.9470"
267,"Primary Schools (Excluding Mixed Level Schools)","ROSYTH SCHOOL","21 Serangoon North Avenue 4","555855",0,"1.372915129149402","103.87469291234207","32604.4939","39435.6087"
268,"Primary Schools (Excluding Mixed Level Schools)","RULANG PRIMARY SCHOOL","6 JURONG WEST STREET 52","649295",1,"1.3468437891451062","103.71900949156321","15278.6912","36553.0314"
269,"Secondary Schools (Excluding Mixed Level Schools)","SCHOOL OF SCIENCE AND TECHNOLOGY, SINGAPORE","1 Technology Drive","138572",0,"1.3131621190779137","103.77395379301903","21393.3021","32828.4651"
270,"Mixed Level Schools","SCHOOL OF THE ARTS, SINGAPORE","01 05 1 Zubir Said Drive Admin Office","227968",0,"1.2993641371917117","103.84868708606675","29710.4145","31302.6820"
271,"Primary Schools (Excluding Mixed Level Schools)","SEMBAWANG PRIMARY SCHOOL","10 SEMBAWANG DRIVE","757715",0,"1.4451026464945462","103.82108045928102","26638.1263","47417.7035"
272,"Secondary Schools (Excluding Mixed Level Schools)","SEMBAWANG SECONDARY SCHOOL","30 SEMBAWANG CRESCENT","757704",0,"1.4453143545644414","103.81684292478009","26166.5553","47441.1161"
273,"Primary Schools (Excluding Mixed Level Schools)","SENG KANG PRIMARY SCHOOL","21 COMPASSVALE WALK","545166",0,"1.3892497900413074","103.89952753968409","35368.2346","41241.8759"
274,"Secondary Schools (Excluding Mixed Level Schools)","SENG KANG SECONDARY SCHOOL","10 COMPASSVALE LANE","545090",0,"1.3860986636831396","103.89839272419273","35241.9539","40893.4366"
275,"Primary Schools (Excluding Mixed Level Schools)","SENGKANG GREEN PRIMARY SCHOOL","15 Fernvale Road","797636",0,"1.3928385842902198","103.87515849277254","32656.2685","41638.6447"
276,"Secondary Schools (Excluding Mixed Level Schools)","SERANGOON GARDEN SECONDARY SCHOOL","21 SERANGOON NORTH AVENUE 1","555889",0,"1.3698898174065868","103.8691493886808","31987.5725","39101.0751"
277,"Junior Colleges/Centralised Institute (Excluding Mixed Level Schools)","SERANGOON JUNIOR COLLEGE","1033 UPPER SERANGOON ROAD","534768",0,"1.3651726849420085","103.88697313276921","33971.1516","38579.5154"
278,"Secondary Schools (Excluding Mixed Level Schools)","SERANGOON SECONDARY SCHOOL","11 UPPER SERANGOON VIEW","534237",0,"1.3746547217859366","103.90213840697075","35658.8371","39628.0345"
279,"Primary Schools (Excluding Mixed Level Schools)","SHUQUN PRIMARY SCHOOL","8 JURONG WEST STREET 51","649332",0,"1.347652447474615","103.7215233805775","15558.4639","36642.4359"
280,"Secondary Schools (Excluding Mixed Level Schools)","SHUQUN SECONDARY SCHOOL","450 JURONG EAST STREET 21","609604",0,"1.3403427325328083","103.73946973474311","17555.6662","35834.0796"
281,"Primary Schools (Excluding Mixed Level Schools)","SI LING PRIMARY SCHOOL","61 WOODLANDS AVENUE 1","739067",0,"1.4324655902649044","103.78579463545951","22711.3376","46020.4125"
282,"Secondary Schools (Excluding Mixed Level Schools)","SI LING SECONDARY SCHOOL","11 MARSILING LANE","739148",0,"1.444712254586358","103.7750210281649","21512.4315","47374.6155"
283,"Secondary Schools (Excluding Mixed Level Schools)","SIGLAP SECONDARY SCHOOL","10 PASIR RIS DRIVE 10","519385",0,"1.379137756887376","103.93927882250786","39792.0902","40123.8978"
284,"Primary Schools (Excluding Mixed Level Schools)","SINGAPORE CHINESE GIRLS' PRIMARY SCHOOL","190 DUNEARN ROAD","309437",0,"1.3210901337538046","103.82797621440695","27405.4848","33705.0264"
285,"Mixed Level Schools","SINGAPORE CHINESE GIRLS' SCHOOL","190 DUNEARN ROAD","309437",0,"1.3210901337538046","103.82797621440695","27405.4848","33705.0264"
286,"Mixed Level Schools","SINGAPORE SPORTS SCHOOL","1 Champions Way","737913",0,"1.42641126314962","103.78943583960172","23116.5361","45350.9472"
287,"Primary Schools (Excluding Mixed Level Schools)","SOUTH VIEW PRIMARY SCHOOL","6 Choa Chu Kang Central","689762",0,"1.381549425354386","103.74675429781358","18366.5242","40390.4810"
288,"Secondary Schools (Excluding Mixed Level Schools)","SPECTRA SECONDARY SCHOOL","1 WOODLANDS DRIVE 64","737758",0,"1.4364378357373677","103.80443237009378","24785.4427","46459.6089"
289,"Primary Schools (Excluding Mixed Level Schools)","SPRINGDALE PRIMARY SCHOOL","71 Anchorvale Link","544799",0,"1.3949575180269798","103.88989616893076","34296.3726","41872.9800"
290,"Secondary Schools (Excluding Mixed Level Schools)","SPRINGFIELD SECONDARY SCHOOL","30 TAMPINES AVENUE 8","529593",0,"1.3495749647420794","103.93021800086984","38783.8644","36854.9472"
291,"Junior Colleges/Centralised Institute (Excluding Mixed Level Schools)","ST. ANDREW'S JUNIOR COLLEGE","5 Sorby Adams Drive","357691",0,"1.3327882211801692","103.86348094608661","31356.7943","34998.5608"
292,"Primary Schools (Excluding Mixed Level Schools)","ST. ANDREW'S JUNIOR SCHOOL","2 FRANCIS THOMAS DRIVE","359337",0,"1.3313884639542406","103.8651286060245","31540.1637","34843.7851"
293,"Secondary Schools (Excluding Mixed Level Schools)","ST. ANDREW'S SECONDARY SCHOOL","15 FRANCIS THOMAS DRIVE","359342",0,"1.3306339437778487","103.86594580233523","31631.1103","34760.3553"
294,"Primary Schools (Excluding Mixed Level Schools)","ST. ANTHONY'S CANOSSIAN PRIMARY SCHOOL","1602 BEDOK NORTH AVE 4","469701",0,"1.3347247066974","103.9412345343906","40009.9558","35212.9303"
295,"Secondary Schools (Excluding Mixed Level Schools)","ST. ANTHONY'S CANOSSIAN SECONDARY SCHOOL","1600 BEDOK NORTH AVENUE 4","469700",0,"1.3349605471604835","103.9416684501394","40058.2450","35239.0105"
296,"Primary Schools (Excluding Mixed Level Schools)","ST. ANTHONY'S PRIMARY SCHOOL","30 Bukit Batok St 32","659401",0,"1.3646384590715468","103.74929370336663","18649.0625","38520.5402"
297,"Primary Schools (Excluding Mixed Level Schools)","ST. GABRIEL'S PRIMARY SCHOOL","220 Lorong Chuan","556742",0,"1.3494148784412847","103.862331700944","31228.8735","36837.0502"
298,"Secondary Schools (Excluding Mixed Level Schools)","ST. GABRIEL'S SECONDARY SCHOOL","24 SERANGOON AVENUE 1","556140",0,"1.3466435015033205","103.87573390971734","32720.3952","36530.6273"
299,"Primary Schools (Excluding Mixed Level Schools)","ST. HILDA'S PRIMARY SCHOOL","2 Tampines Ave 3","529706",0,"1.3493492774050617","103.93792017803216","39641.0330","36830.0273"
300,"Secondary Schools (Excluding Mixed Level Schools)","ST. HILDA'S SECONDARY SCHOOL","2 TAMPINES STREET 82","528986",0,"1.3503751010005751","103.93665435512719","39500.1560","36943.4518"
301,"Mixed Level Schools","ST. JOSEPH'S INSTITUTION","21 BISHAN STREET 14","579781",0,"1.3522124325399918","103.85324617533423","30217.7534","37146.3793"
302,"Primary Schools (Excluding Mixed Level Schools)","ST. JOSEPH'S INSTITUTION JUNIOR","3 ESSEX ROAD","309331",1,"1.317701586472042","103.84566974822516","29374.6018","33330.3410"
303,"Primary Schools (Excluding Mixed Level Schools)","ST. MARGARET'S PRIMARY SCHOOL","99 WILKIE ROAD","228091",0,"1.3041434070775255","103.84581993321197","29391.3234","31831.1473"
304,"Secondary Schools (Excluding Mixed Level Schools)","ST. MARGARET'S SECONDARY SCHOOL","111 FARRER ROAD","259240",0,"1.3197739733926097","103.80960188233593","25360.6021","33559.5041"
305,"Secondary Schools (Excluding Mixed Level Schools)","ST. PATRICK'S SCHOOL","490 EAST COAST ROAD","429058",0,"1.3080171932784408","103.91746142292267","37364.3546","32259.6441"
306,"Primary Schools (Excluding Mixed Level Schools)","ST. STEPHEN'S SCHOOL","20 SIGLAP VIEW","455789",0,"1.3188155399554278","103.91752580934896","37371.4800","33453.6713"
307,"Primary Schools (Excluding Mixed Level Schools)","STAMFORD PRIMARY SCHOOL","1 VICTORIA LANE","198423",0,"1.3038589275204187","103.85695479704556","30630.5322","31799.6999"
308,"Secondary Schools (Excluding Mixed Level Schools)","SWISS COTTAGE SECONDARY SCHOOL","3 BUKIT BATOK STREET 34","659322",0,"1.364333240221566","103.7506733356468","18802.5982","38486.7853"
309,"Junior Colleges/Centralised Institute (Excluding Mixed Level Schools)","TAMPINES JUNIOR COLLEGE","2 TAMPINES AVENUE 9","529564",0,"1.3572795057273537","103.95618560320285","41673.7304","37707.0085"
310,"Primary Schools (Excluding Mixed Level Schools)","TAMPINES NORTH PRIMARY SCHOOL","30 TAMPINES AVENUE 9","529565",0,"1.3606910529366947","103.94893646398582","40866.9650","38084.2010"
311,"Primary Schools (Excluding Mixed Level Schools)","TAMPINES PRIMARY SCHOOL","250 TAMPINES STREET 12","529426",0,"1.3504857315529761","103.94357275603407","40270.0972","36955.7186"
312,"Secondary Schools (Excluding Mixed Level Schools)","TAMPINES SECONDARY SCHOOL","252 TAMPINES ST 12","529427",0,"1.349260281197048","103.94426337621951","40346.9618","36820.2178"
313,"Secondary Schools (Excluding Mixed Level Schools)","TANGLIN SECONDARY SCHOOL","301 WEST COAST ROAD","127391",0,"1.3097010260047965","103.75815802554715","19635.3713","32445.8022"
314,"Secondary Schools (Excluding Mixed Level Schools)","TANJONG KATONG GIRLS' SCHOOL","20 DUNMAN LANE","439272",0,"1.3075619521397785","103.8961068708227","34987.7913","32209.2363"
315,"Primary Schools (Excluding Mixed Level Schools)","TANJONG KATONG PRIMARY SCHOOL","10 SERAYA ROAD","437259",0,"1.3053067036343484","103.9005313512327","35480.2018","31959.8751"
316,"Secondary Schools (Excluding Mixed Level Schools)","TANJONG KATONG SECONDARY SCHOOL","130 HAIG ROAD","438796",0,"1.3085827076630836","103.89732978789186","35123.8878","32322.1097"
317,"Primary Schools (Excluding Mixed Level Schools)","TAO NAN SCHOOL","49 MARINE CRESCENT","449761",1,"1.3046308620412435","103.91120389880476","36667.9614","31885.1782"
318,"Primary Schools (Excluding Mixed Level Schools)","TECK GHEE PRIMARY SCHOOL","1 ANG MO KIO STREET 32","569299",0,"1.3651999644159452","103.85103182947236","29971.3112","38582.4725"
319,"Primary Schools (Excluding Mixed Level Schools)","TECK WHYE PRIMARY SCHOOL","11 TECK WHYE WALK","688261",0,"1.383655559256965","103.75334922878773","19100.4652","40623.3411"
320,"Secondary Schools (Excluding Mixed Level Schools)","TECK WHYE SECONDARY SCHOOL","31 TECK WHYE CRESCENT","688848",0,"1.3833092322707778","103.75526055337669","19313.1702","40585.0389"
321,"Primary Schools (Excluding Mixed Level Schools)","TELOK KURAU PRIMARY SCHOOL","50 BEDOK RESERVOIR RD","479239",0,"1.330988602467006","103.91138963195625","36688.5405","34799.6851"
322,"Mixed Level Schools","TEMASEK JUNIOR COLLEGE","22 BEDOK SOUTH ROAD","469278",0,"1.3184612392051769","103.9355976368589","39382.7016","33414.5698"
323,"Primary Schools (Excluding Mixed Level Schools)","TEMASEK PRIMARY SCHOOL","501 BEDOK SOUTH AVE 3","469300",0,"1.3177061087918482","103.94559033535184","40494.7969","33331.1191"
324,"Secondary Schools (Excluding Mixed Level Schools)","TEMASEK SECONDARY SCHOOL","600 UPPER EAST COAST ROAD","465561",0,"1.3157703185782568","103.94714720570263","40668.0715","33117.0768"
325,"Primary Schools (Excluding Mixed Level Schools)","TOWNSVILLE PRIMARY SCHOOL","3 ANG MO KIO AVE 10","569730",0,"1.3603141144842126","103.85388087230815","30288.3804","38042.2226"
326,"Primary Schools (Excluding Mixed Level Schools)","UNITY PRIMARY SCHOOL","21 CHOA CHU KANG CRESCENT","688268",0,"1.4028227226060055","103.74699308639579","18393.1845","42742.7761"
327,"Secondary Schools (Excluding Mixed Level Schools)","UNITY SECONDARY SCHOOL","20 CHOA CHU KANG STREET 62","689143",0,"1.3996418016662966","103.74603581201255","18286.6397","42391.0495"
328,"Junior Colleges/Centralised Institute (Excluding Mixed Level Schools)","VICTORIA JUNIOR COLLEGE","20 MARINE VISTA","449035",0,"1.3057172985325818","103.91953069972452","37594.6548","32005.3411"
329,"Secondary Schools (Excluding Mixed Level Schools)","VICTORIA SCHOOL","2 SIGLAP LINK","448880",0,"1.3083561573636882","103.92761117625047","38493.9275","32297.1652"
330,"Primary Schools (Excluding Mixed Level Schools)","WATERWAY PRIMARY SCHOOL","70 Punggol Drive","828802",0,"1.399153543519927","103.9186704308343","37498.5515","42337.0523"
331,"Primary Schools (Excluding Mixed Level Schools)","WELLINGTON PRIMARY SCHOOL","10 WELLINGTON CIRCLE","757702",0,"1.4519332039666737","103.82232025231365","26776.0995","48172.9916"
332,"Primary Schools (Excluding Mixed Level Schools)","WEST GROVE PRIMARY SCHOOL","1 JURONG WEST ST 72","649223",0,"1.3448783896759855","103.699286027446","13083.6706","36335.8188"
333,"Primary Schools (Excluding Mixed Level Schools)","WEST SPRING PRIMARY SCHOOL","60 Bukit Panjang Ring Road","679946",0,"1.389462451704784","103.76607694188857","20516.9168","41265.3943"
334,"Secondary Schools (Excluding Mixed Level Schools)","WEST SPRING SECONDARY SCHOOL","61 SENJA ROAD","677737",0,"1.3878036718657445","103.76014711852727","19856.9985","41081.9943"
335,"Primary Schools (Excluding Mixed Level Schools)","WEST VIEW PRIMARY SCHOOL","31 SENJA ROAD","677742",0,"1.3835899070234523","103.76028877338157","19872.7485","40616.0567"
336,"Primary Schools (Excluding Mixed Level Schools)","WESTWOOD PRIMARY SCHOOL","1 Jurong West Street 73","649188",0,"1.3471539647938813","103.70052638259422","13221.7226","36587.4334"
337,"Secondary Schools (Excluding Mixed Level Schools)","WESTWOOD SECONDARY SCHOOL","11 JURONG WEST STREET 25","648350",0,"1.3535254684919658","103.70160396065224","13341.6836","37291.9571"
338,"Primary Schools (Excluding Mixed Level Schools)","WHITE SANDS PRIMARY SCHOOL","2 PASIR RIS ST 11","519075",0,"1.365556480246105","103.9609185361762","42200.4041","38622.2637"
339,"Secondary Schools (Excluding Mixed Level Schools)","WHITLEY SECONDARY SCHOOL","30 BISHAN STREET 24","579747",0,"1.35549395705125","103.84256354807525","29028.8963","37509.2264"
340,"Primary Schools (Excluding Mixed Level Schools)","WOODGROVE PRIMARY SCHOOL","2 WOODLANDS DRIVE 14 WOODGROVE PRIMARY SCHOOL","738079",0,"1.4330573939471276","103.7903892871507","23222.6545","46085.8411"
341,"Secondary Schools (Excluding Mixed Level Schools)","WOODGROVE SECONDARY SCHOOL","3 WOODLANDS AVENUE 6","738990",0,"1.4286276480680118","103.79630367182638","23880.8285","45596.0105"
342,"Primary Schools (Excluding Mixed Level Schools)","WOODLANDS PRIMARY SCHOOL","10 WOODLANDS DRIVE 50","738853",0,"1.4367457161871708","103.79177136002289","23376.4658","46493.6745"
343,"Primary Schools (Excluding Mixed Level Schools)","WOODLANDS RING PRIMARY SCHOOL","11 WOODLANDS RING ROAD","738240",0,"1.434769037700529","103.79784079337405","24051.8978","46275.0919"
344,"Secondary Schools (Excluding Mixed Level Schools)","WOODLANDS RING SECONDARY SCHOOL","10 WOODLANDS RING ROAD","738239",0,"1.4361130120402088","103.80052019480163","24350.0767","46423.6974"
345,"Secondary Schools (Excluding Mixed Level Schools)","WOODLANDS SECONDARY SCHOOL","11 MARSILING ROAD","739111",0,"1.4391826503239562","103.7744984490733","21454.2608","46763.1808"
346,"Primary Schools (Excluding Mixed Level Schools)","XINGHUA PRIMARY SCHOOL","45 HOUGANG AVENUE 1","538882",0,"1.3587170129962811","103.89088413432493","34406.4168","37865.6898"
347,"Primary Schools (Excluding Mixed Level Schools)","XINGNAN PRIMARY SCHOOL","5 JURONG WEST STREET 91","649036",0,"1.3426842095653948","103.68772365183753","11796.8867","36093.2705"
348,"Primary Schools (Excluding Mixed Level Schools)","XINMIN PRIMARY SCHOOL","9 HOUGANG AVENUE 8","538784",0,"1.3713961126909713","103.88307803853715","33537.6595","39267.6613"
349,"Secondary Schools (Excluding Mixed Level Schools)","XINMIN SECONDARY SCHOOL","11 HOUGANG AVENUE 8","538789",0,"1.3726422336166773","103.88305019868872","33534.5584","39405.4510"
350,"Primary Schools (Excluding Mixed Level Schools)","XISHAN PRIMARY SCHOOL","8 YISHUN STREET 21","768611",0,"1.433500788078738","103.8382889776346","28553.1674","46134.8252"
351,"Primary Schools (Excluding Mixed Level Schools)","YANGZHENG PRIMARY SCHOOL","15 SERANGOON AVENUE 3","556108",0,"1.348971357122552","103.86836218861251","31900.0002","36788.0167"
352,"Primary Schools (Excluding Mixed Level Schools)","YEW TEE PRIMARY SCHOOL","10 CHOA CHU KANG ST 64","689100",0,"1.3967652958195282","103.75098510546978","18837.4187","42072.9598"
353,"Primary Schools (Excluding Mixed Level Schools)","YIO CHU KANG PRIMARY SCHOOL","1 HOUGANG STREET 51","538720",0,"1.377822043032986","103.88556838145284","33814.7889","39978.2142"
354,"Secondary Schools (Excluding Mixed Level Schools)","YIO CHU KANG SECONDARY SCHOOL","3063 ANG MO KIO AVENUE 5","569868",0,"1.377975311123071","103.84213663003472","28981.3761","39995.0999"
355,"Junior Colleges/Centralised Institute (Excluding Mixed Level Schools)","YISHUN JUNIOR COLLEGE","3 YISHUN RING ROAD","768675",0,"1.4246181787011947","103.82963402578903","27590.0005","45152.6307"
356,"Primary Schools (Excluding Mixed Level Schools)","YISHUN PRIMARY SCHOOL","500 YISHUN RING ROAD","768679",0,"1.4334957325496436","103.83402707718832","28078.8823","46134.2656"
357,"Secondary Schools (Excluding Mixed Level Schools)","YISHUN SECONDARY SCHOOL","4 YISHUN STREET 71","768516",0,"1.4281313449980115","103.82881447592575","27498.7974","45541.0991"
358,"Secondary Schools (Excluding Mixed Level Schools)","YISHUN TOWN SECONDARY SCHOOL","6 YISHUN STREET 21","768610",0,"1.4326035729636803","103.83801133882874","28522.2706","46035.6156"
359,"Primary Schools (Excluding Mixed Level Schools)","YU NENG PRIMARY SCHOOL","56 BEDOK NORTH ST 3","469623",0,"1.3338883433162436","103.93215000122466","38998.9448","35120.4069"
360,"Secondary Schools (Excluding Mixed Level Schools)","YUAN CHING SECONDARY SCHOOL","103 YUAN CHING ROAD","618654",0,"1.3418912049830778","103.72063045778917","15459.0619","36005.3905"
361,"Primary Schools (Excluding Mixed Level Schools)","YUHUA PRIMARY SCHOOL","158 JURONG EAST STREET 24","609558",0,"1.3429191513694567","103.7408608111287","17710.4890","36118.9613"
362,"Secondary Schools (Excluding Mixed Level Schools)","YUHUA SECONDARY SCHOOL","35 JURONG WEST STREET 41","649406",0,"1.3472177824942893","103.72258118917676","15676.1843","36594.3674"
363,"Primary Schools (Excluding Mixed Level Schools)","YUMIN PRIMARY SCHOOL","3 TAMPINES STREET 21","529393",0,"1.351458936720374","103.95071578916207","41065.0330","37063.3681"
364,"Secondary Schools (Excluding Mixed Level Schools)","YUSOF ISHAK SECONDARY SCHOOL","11 BUKIT BATOK STREET 25","658712",0,"1.3423331116470099","103.76001280811624","19841.8982","36054.0877"
365,"Secondary Schools (Excluding Mixed Level Schools)","YUYING SECONDARY SCHOOL","47 HOUGANG AVENUE 1","538884",0,"1.3569329365426352","103.89045729076996","34358.9187","37668.4145"
366,"Primary Schools (Excluding Mixed Level Schools)","ZHANGDE PRIMARY SCHOOL","51 Jalan Membina","169485",0,"1.2842794341928547","103.82617583915942","27205.1093","29634.6893"
367,"Primary Schools (Excluding Mixed Level Schools)","ZHENGHUA PRIMARY SCHOOL","9 Fajar Road","679002",1,"1.3798016939802857","103.76917046355847","20861.1568","40197.1465"
368,"Secondary Schools (Excluding Mixed Level Schools)","ZHENGHUA SECONDARY SCHOOL","91 SENJA ROAD","677741",0,"1.3881963561054793","103.76525197291976","20425.1044","41125.3984"
369,"Primary Schools (Excluding Mixed Level Schools)","ZHONGHUA PRIMARY SCHOOL","12 SERANGOON AVENUE 4 ZHONGHUA PRIMARY SCHOOL","556095",1,"1.3602026302382555","103.86976210461593","32055.7766","38029.9161"
370,"Secondary Schools (Excluding Mixed Level Schools)","ZHONGHUA SECONDARY SCHOOL","13 SERANGOON AVENUE 3","556123",0,"1.3490966943235732","103.86979970084249","32059.9791","36801.8782"
